{
  "type": "FeatureCollection",
  "metadata": {
    "source": "SYNTHETIC — shaped to mirror TDOT TITAN crash record fields for Phase 1 prototype. Not real crash data.",
    "fieldsModeledAfter": "TDOT TITAN crash database"
  },
  "features": [
    { "type": "Feature", "properties": { "id": "TN-CH-001", "roadName": "I-40", "county": "Shelby", "severity": "Fatal", "severityWeight": 5, "crashCount5yr": 14, "description": "I-40/I-240 north interchange, Memphis" }, "geometry": { "type": "Point", "coordinates": [-90.019, 35.149] } },
    { "type": "Feature", "properties": { "id": "TN-CH-002", "roadName": "I-40", "county": "Madison", "severity": "Injury", "severityWeight": 3, "crashCount5yr": 9, "description": "I-40 near Jackson, US-45 interchange" }, "geometry": { "type": "Point", "coordinates": [-88.814, 35.615] } },
    { "type": "Feature", "properties": { "id": "TN-CH-003", "roadName": "I-40", "county": "Davidson", "severity": "Injury", "severityWeight": 4, "crashCount5yr": 21, "description": "I-40/I-65/I-24 downtown Nashville split" }, "geometry": { "type": "Point", "coordinates": [-86.778, 36.163] } },
    { "type": "Feature", "properties": { "id": "TN-CH-004", "roadName": "I-40", "county": "Putnam", "severity": "PDO", "severityWeight": 1, "crashCount5yr": 5, "description": "I-40 near Cookeville" }, "geometry": { "type": "Point", "coordinates": [-85.502, 36.163] } },
    { "type": "Feature", "properties": { "id": "TN-CH-005", "roadName": "I-40 / I-75", "county": "Knox", "severity": "Fatal", "severityWeight": 5, "crashCount5yr": 17, "description": "\"Malfunction Junction\" I-40/I-75 interchange, Knoxville" }, "geometry": { "type": "Point", "coordinates": [-83.945, 35.965] } },
    { "type": "Feature", "properties": { "id": "TN-CH-006", "roadName": "I-24", "county": "Montgomery", "severity": "Injury", "severityWeight": 3, "crashCount5yr": 8, "description": "I-24 near Clarksville" }, "geometry": { "type": "Point", "coordinates": [-87.359, 36.530] } },
    { "type": "Feature", "properties": { "id": "TN-CH-007", "roadName": "I-24", "county": "Davidson", "severity": "Injury", "severityWeight": 3, "crashCount5yr": 11, "description": "I-24/I-65 split, south Nashville" }, "geometry": { "type": "Point", "coordinates": [-86.740, 36.130] } },
    { "type": "Feature", "properties": { "id": "TN-CH-008", "roadName": "I-24", "county": "Rutherford", "severity": "PDO", "severityWeight": 2, "crashCount5yr": 6, "description": "I-24 near Murfreesboro" }, "geometry": { "type": "Point", "coordinates": [-86.390, 35.846] } },
    { "type": "Feature", "properties": { "id": "TN-CH-009", "roadName": "I-24", "county": "Marion", "severity": "Fatal", "severityWeight": 5, "crashCount5yr": 23, "description": "Monteagle Mountain grade — well-documented truck runaway/crash corridor" }, "geometry": { "type": "Point", "coordinates": [-85.834, 35.243] } },
    { "type": "Feature", "properties": { "id": "TN-CH-010", "roadName": "I-24 / I-75", "county": "Hamilton", "severity": "Injury", "severityWeight": 4, "crashCount5yr": 15, "description": "I-24/I-75 interchange, Chattanooga" }, "geometry": { "type": "Point", "coordinates": [-85.310, 35.046] } },
    { "type": "Feature", "properties": { "id": "TN-CH-011", "roadName": "I-65", "county": "Williamson", "severity": "Injury", "severityWeight": 3, "crashCount5yr": 10, "description": "I-65 near Franklin / Cool Springs" }, "geometry": { "type": "Point", "coordinates": [-86.869, 35.925] } },
    { "type": "Feature", "properties": { "id": "TN-CH-012", "roadName": "I-65", "county": "Davidson", "severity": "PDO", "severityWeight": 2, "crashCount5yr": 7, "description": "I-65 downtown Nashville merge" }, "geometry": { "type": "Point", "coordinates": [-86.778, 36.166] } },
    { "type": "Feature", "properties": { "id": "TN-CH-013", "roadName": "I-65", "county": "Sumner", "severity": "PDO", "severityWeight": 1, "crashCount5yr": 4, "description": "I-65 near Portland, TN/KY line" }, "geometry": { "type": "Point", "coordinates": [-86.516, 36.578] } },
    { "type": "Feature", "properties": { "id": "TN-CH-014", "roadName": "I-75", "county": "Hamilton", "severity": "Injury", "severityWeight": 3, "crashCount5yr": 9, "description": "I-75 north Chattanooga" }, "geometry": { "type": "Point", "coordinates": [-85.246, 35.020] } },
    { "type": "Feature", "properties": { "id": "TN-CH-015", "roadName": "I-75", "county": "Knox", "severity": "Injury", "severityWeight": 3, "crashCount5yr": 12, "description": "I-75 near Knoxville" }, "geometry": { "type": "Point", "coordinates": [-83.945, 35.965] } },
    { "type": "Feature", "properties": { "id": "TN-CH-016", "roadName": "I-75", "county": "Campbell", "severity": "Fatal", "severityWeight": 5, "crashCount5yr": 19, "description": "Jellico Mountain grade — well-documented truck brake-failure corridor near KY line" }, "geometry": { "type": "Point", "coordinates": [-84.130, 36.578] } },
    { "type": "Feature", "properties": { "id": "TN-CH-017", "roadName": "I-55", "county": "Shelby", "severity": "Injury", "severityWeight": 3, "crashCount5yr": 8, "description": "I-55/I-240 interchange, Memphis" }, "geometry": { "type": "Point", "coordinates": [-90.050, 35.081] } },
    { "type": "Feature", "properties": { "id": "TN-CH-018", "roadName": "I-55", "county": "Shelby", "severity": "PDO", "severityWeight": 1, "crashCount5yr": 3, "description": "I-55 north Memphis toward Missouri line" }, "geometry": { "type": "Point", "coordinates": [-90.106, 35.310] } },
    { "type": "Feature", "properties": { "id": "TN-CH-019", "roadName": "I-240", "county": "Shelby", "severity": "Injury", "severityWeight": 4, "crashCount5yr": 16, "description": "I-240/I-40 west interchange, Memphis" }, "geometry": { "type": "Point", "coordinates": [-89.988, 35.169] } },
    { "type": "Feature", "properties": { "id": "TN-CH-020", "roadName": "I-240", "county": "Shelby", "severity": "PDO", "severityWeight": 2, "crashCount5yr": 6, "description": "I-240 east, Poplar Ave interchange, Memphis" }, "geometry": { "type": "Point", "coordinates": [-89.876, 35.132] } }
  ]
}
